[{"OBJECT_NAME":"STARLINK-4557","OBJECT_ID":"2022-097AW","EPOCH":"2026-03-09T11:13:24.248064","MEAN_MOTION":15.08842876,"ECCENTRICITY":0.00012694,"INCLINATION":53.2167,"RA_OF_ASC_NODE":104.8783,"ARG_OF_PERICENTER":91.0838,"MEAN_ANOMALY":269.03,"EPHEMERIS_TYPE":0,"CLASSIFICATION_TYPE":"U","NORAD_CAT_ID":53432,"ELEMENT_SET_NO":999,"REV_AT_EPOCH":19875,"BSTAR":-4.6281808e-5,"MEAN_MOTION_DOT":-1.024e-5,"MEAN_MOTION_DDOT":0},{"OBJECT_NAME":"COSMOS 249 DEB","OBJECT_ID":"1968-091DJ","EPOCH":"2026-03-09T22:59:41.072064","MEAN_MOTION":14.2447733,"ECCENTRICITY":0.04678273,"INCLINATION":62.7651,"RA_OF_ASC_NODE":269.2895,"ARG_OF_PERICENTER":43.0913,"MEAN_ANOMALY":320.579,"EPHEMERIS_TYPE":0,"CLASSIFICATION_TYPE":"U","NORAD_CAT_ID":19362,"ELEMENT_SET_NO":999,"REV_AT_EPOCH":90582,"BSTAR":0.0013749035,"MEAN_MOTION_DOT":0.00010099,"MEAN_MOTION_DDOT":0}]
